{
  "type": "FeatureCollection",
  "features": [
    {
      "type": "Feature",
      "properties": {
        "norad_id": 37781,
        "name": "HAIYANG-2A",
        "group": "resource",
        "lat": -41.66008069518531,
        "lon": -2.878699709100115,
        "alt_km": 975.1805923649408,
        "timestamp": "2025-12-13T18:50:04.085195+00:00",
        "meta_object_name": "HAIYANG-2A",
        "meta_object_id": "2011-043A",
        "meta_epoch": "2025-12-13T06:50:55.623264",
        "meta_mean_motion": 13.78834391,
        "meta_eccentricity": 0.00016501,
        "meta_inclination": 99.3383,
        "meta_ra_of_asc_node": 348.2114,
        "meta_arg_of_pericenter": 82.4238,
        "meta_mean_anomaly": 277.7101,
        "meta_ephemeris_type": 0,
        "meta_classification_type": "U",
        "meta_norad_cat_id": 37781,
        "meta_element_set_no": 999,
        "meta_rev_at_epoch": 72106,
        "meta_bstar": -0.00015480109,
        "meta_mean_motion_dot": -2.02e-06,
        "meta_mean_motion_ddot": 0,
        "tle_line1": "1 37781U 11043A   25347.28536601 -.00000202  00000+0 -15480-3 0  9993",
        "tle_line2": "2 37781  99.3383 348.2114 0001650  82.4238 277.7101 13.78834391721063"
      },
      "geometry": {
        "type": "Point",
        "coordinates": [
          -2.878699709100115,
          -41.66008069518531
        ]
      }
    },
    {
      "type": "Feature",
      "properties": {
        "norad_id": 37791,
        "name": "RASAT",
        "group": "resource",
        "lat": 48.219743753898925,
        "lon": 67.89575825177603,
        "alt_km": 648.3972279281943,
        "timestamp": "2025-12-13T18:50:04.085205+00:00",
        "meta_object_name": "RASAT",
        "meta_object_id": "2011-044D",
        "meta_epoch": "2025-12-13T07:29:13.558272",
        "meta_mean_motion": 14.67912767,
        "meta_eccentricity": 0.00218734,
        "meta_inclination": 98.0645,
        "meta_ra_of_asc_node": 76.5607,
        "meta_arg_of_pericenter": 63.3939,
        "meta_mean_anomaly": 8.5557,
        "meta_ephemeris_type": 0,
        "meta_classification_type": "U",
        "meta_norad_cat_id": 37791,
        "meta_element_set_no": 999,
        "meta_rev_at_epoch": 76591,
        "meta_bstar": 0.00025779547,
        "meta_mean_motion_dot": 1.431e-05,
        "meta_mean_motion_ddot": 0,
        "tle_line1": "1 37791U 11044D   25347.31196248  .00001431  00000+0  25780-3 0  9995",
        "tle_line2": "2 37791  98.0645  76.5607 0021873  63.3939   8.5557 14.67912767765914"
      },
      "geometry": {
        "type": "Point",
        "coordinates": [
          67.89575825177603,
          48.219743753898925
        ]
      }
    },
    {
      "type": "Feature",
      "properties": {
        "norad_id": 37841,
        "name": "SRMSAT",
        "group": "resource",
        "lat": -1.2857801331267726,
        "lon": 98.08590434622232,
        "alt_km": 844.7716941557865,
        "timestamp": "2025-12-13T18:50:04.085216+00:00",
        "meta_object_name": "SRMSAT",
        "meta_object_id": "2011-058D",
        "meta_epoch": "2025-12-13T00:55:22.594944",
        "meta_mean_motion": 14.11511594,
        "meta_eccentricity": 0.00117679,
        "meta_inclination": 19.971,
        "meta_ra_of_asc_node": 106.1426,
        "meta_arg_of_pericenter": 316.7615,
        "meta_mean_anomaly": 198.8861,
        "meta_ephemeris_type": 0,
        "meta_classification_type": "U",
        "meta_norad_cat_id": 37841,
        "meta_element_set_no": 999,
        "meta_rev_at_epoch": 73148,
        "meta_bstar": 0.00013117397,
        "meta_mean_motion_dot": 5.06e-06,
        "meta_mean_motion_ddot": 0,
        "tle_line1": "1 37841U 11058D   25347.03845596  .00000506  00000+0  13117-3 0  9995",
        "tle_line2": "2 37841  19.9710 106.1426 0011767 316.7615 198.8861 14.11511594731489"
      },
      "geometry": {
        "type": "Point",
        "coordinates": [
          98.08590434622232,
          -1.2857801331267726
        ]
      }
    },
    {
      "type": "Feature",
      "properties": {
        "norad_id": 38012,
        "name": "PLEIADES 1A",
        "group": "resource",
        "lat": 10.743182144077101,
        "lon": -117.89906552117293,
        "alt_km": 699.3923989811747,
        "timestamp": "2025-12-13T18:50:04.085227+00:00",
        "meta_object_name": "PLEIADES 1A",
        "meta_object_id": "2011-076F",
        "meta_epoch": "2025-12-13T08:31:01.282944",
        "meta_mean_motion": 14.58563252,
        "meta_eccentricity": 0.00012967,
        "meta_inclination": 98.1819,
        "meta_ra_of_asc_node": 60.1135,
        "meta_arg_of_pericenter": 74.3067,
        "meta_mean_anomaly": 358.7484,
        "meta_ephemeris_type": 0,
        "meta_classification_type": "U",
        "meta_norad_cat_id": 38012,
        "meta_element_set_no": 999,
        "meta_rev_at_epoch": 74490,
        "meta_bstar": 0.00019489246,
        "meta_mean_motion_dot": 8.61e-06,
        "meta_mean_motion_ddot": 0,
        "tle_line1": "1 38012U 11076F   25347.35487596  .00000861  00000+0  19489-3 0  9995",
        "tle_line2": "2 38012  98.1819  60.1135 0001296  74.3067 358.7484 14.58563252744907"
      },
      "geometry": {
        "type": "Point",
        "coordinates": [
          -117.89906552117293,
          10.743182144077101
        ]
      }
    },
    {
      "type": "Feature",
      "properties": {
        "norad_id": 38038,
        "name": "ZIYUAN 1-02C (ZY 1-02C)",
        "group": "resource",
        "lat": -0.5442808719605154,
        "lon": 53.85929813894314,
        "alt_km": 771.7736607732159,
        "timestamp": "2025-12-13T18:50:04.085238+00:00",
        "meta_object_name": "ZIYUAN 1-02C (ZY 1-02C)",
        "meta_object_id": "2011-079A",
        "meta_epoch": "2025-12-13T07:30:03.259008",
        "meta_mean_motion": 14.38014031,
        "meta_eccentricity": 0.00072061,
        "meta_inclination": 98.4329,
        "meta_ra_of_asc_node": 53.3151,
        "meta_arg_of_pericenter": 136.8031,
        "meta_mean_anomaly": 299.5609,
        "meta_ephemeris_type": 0,
        "meta_classification_type": "U",
        "meta_norad_cat_id": 38038,
        "meta_element_set_no": 999,
        "meta_rev_at_epoch": 73249,
        "meta_bstar": 0.00034544416,
        "meta_mean_motion_dot": 1.002e-05,
        "meta_mean_motion_ddot": 0,
        "tle_line1": "1 38038U 11079A   25347.31253772  .00001002  00000+0  34544-3 0  9996",
        "tle_line2": "2 38038  98.4329  53.3151 0007206 136.8031 299.5609 14.38014031732494"
      },
      "geometry": {
        "type": "Point",
        "coordinates": [
          53.85929813894314,
          -0.5442808719605154
        ]
      }
    },
    {
      "type": "Feature",
      "properties": {
        "norad_id": 38046,
        "name": "ZIYUAN 3-1 (ZY 3-1)",
        "group": "resource",
        "lat": -72.76686367837627,
        "lon": 78.19058282806023,
        "alt_km": 369.09656244136204,
        "timestamp": "2025-12-13T18:50:04.085249+00:00",
        "meta_object_name": "ZIYUAN 3-1 (ZY 3-1)",
        "meta_object_id": "2012-001A",
        "meta_epoch": "2025-12-13T06:54:12.337056",
        "meta_mean_motion": 15.68694418,
        "meta_eccentricity": 0.00017246,
        "meta_inclination": 97.1754,
        "meta_ra_of_asc_node": 53.7178,
        "meta_arg_of_pericenter": 350.3429,
        "meta_mean_anomaly": 9.7799,
        "meta_ephemeris_type": 0,
        "meta_classification_type": "U",
        "meta_norad_cat_id": 38046,
        "meta_element_set_no": 999,
        "meta_rev_at_epoch": 77505,
        "meta_bstar": 0.00096345471,
        "meta_mean_motion_dot": 0.0011072,
        "meta_mean_motion_ddot": 0,
        "tle_line1": "1 38046U 12001A   25347.28764279  .00110720  00000+0  96345-3 0  9991",
        "tle_line2": "2 38046  97.1754  53.7178 0001724 350.3429   9.7799 15.68694418775054"
      },
      "geometry": {
        "type": "Point",
        "coordinates": [
          78.19058282806023,
          -72.76686367837627
        ]
      }
    },
    {
      "type": "Feature",
      "properties": {
        "norad_id": 38338,
        "name": "ARIRANG-3 (KOMPSAT-3)",
        "group": "resource",
        "lat": 75.68078431582929,
        "lon": -92.65852086828659,
        "alt_km": 681.2874095543057,
        "timestamp": "2025-12-13T18:50:04.085260+00:00",
        "meta_object_name": "ARIRANG-3 (KOMPSAT-3)",
        "meta_object_id": "2012-025B",
        "meta_epoch": "2025-12-13T06:58:39.047808",
        "meta_mean_motion": 14.61713927,
        "meta_eccentricity": 0.00053235,
        "meta_inclination": 98.3322,
        "meta_ra_of_asc_node": 301.8842,
        "meta_arg_of_pericenter": 337.066,
        "meta_mean_anomaly": 23.0302,
        "meta_ephemeris_type": 0,
        "meta_classification_type": "U",
        "meta_norad_cat_id": 38338,
        "meta_element_set_no": 999,
        "meta_rev_at_epoch": 72418,
        "meta_bstar": 0.00019740491,
        "meta_mean_motion_dot": 9.35e-06,
        "meta_mean_motion_ddot": 0,
        "tle_line1": "1 38338U 12025B   25347.29072972  .00000935  00000+0  19740-3 0  9994",
        "tle_line2": "2 38338  98.3322 301.8842 0005323 337.0660  23.0302 14.61713927724181"
      },
      "geometry": {
        "type": "Point",
        "coordinates": [
          -92.65852086828659,
          75.68078431582929
        ]
      }
    }
  ]
}